NORAD_CAT_ID,OBJECT_NAME,OBJECT_TYPE,EPOCH,MEAN_MOTION,ECCENTRICITY,INCLINATION,RA_OF_ASC_NODE,ARG_OF_PERICENTER,MEAN_ANOMALY,BSTAR,MEAN_MOTION_DOT,MEAN_MOTION_DDOT,TLE_LINE0,TLE_LINE1,TLE_LINE2,SEMIMAJOR_AXIS,PERIOD,APOGEE,PERIGEE,DECAYED
56797.0,STARLINK-6058,PAYLOAD,2024-02-01 15:34:25,14.98330972,0.0003257,69.9992,118.4893,271.5918,88.4868,7.1095e-05,7.55e-06,0.0,0 STARLINK-6058,1 56797U 23078AG  24032.64890607  .00000755  00000-0  71095-4 0  9998,2 56797  69.9992 118.4893 0003257 271.5918  88.4868 14.98330972 38047,6950.19,96.107,574.319,569.791,0.0
56797.0,STARLINK-6058,PAYLOAD,2024-02-02 14:00:18,14.98336155,0.0003043,69.9995,116.1322,271.3312,88.7499,4.3301e-05,4.24e-06,0.0,0 STARLINK-6058,1 56797U 23078AG  24033.58354235  .00000424  00000-0  43301-4 0  9996,2 56797  69.9995 116.1322 0003043 271.3312  88.7499 14.98336155 37929,6950.174,96.107,574.154,569.924,0.0
56797.0,STARLINK-6058,PAYLOAD,2024-02-02 15:36:26,14.98337178,0.0003036,69.9995,115.964,271.2074,88.8737,5.3652e-05,5.47e-06,0.0,0 STARLINK-6058,1 56797U 23078AG  24033.65030112  .00000547  00000-0  53652-4 0  9995,2 56797  69.9995 115.9640 0003036 271.2074  88.8737 14.98337178 38197,6950.171,96.107,574.146,569.926,0.0
56797.0,STARLINK-6058,PAYLOAD,2024-02-03 04:25:31,14.98342376,0.0002401,70.0009,114.6177,270.9542,89.1342,-0.000267,-3.278e-05,0.0,0 STARLINK-6058,1 56797U 23078AG  24034.18438903 -.00003278  00000-0 -26700-3 0  9993,2 56797  70.0009 114.6177 0002401 270.9542  89.1342 14.98342376 38279,6950.155,96.106,573.688,570.351,0.0
56797.0,STARLINK-6058,PAYLOAD,2024-02-03 12:26:11,14.98322509,0.0002714,70.0003,113.7763,270.8452,89.2396,-7.0197e-05,-9.3e-06,0.0,0 STARLINK-6058,1 56797U 23078AG  24034.51819423 -.00000930  00000-0 -70197-4 0  9992,2 56797  70.0003 113.7763 0002714 270.8452  89.2396 14.98322509 38322,6950.216,96.107,573.967,570.195,0.0
56797.0,STARLINK-6058,PAYLOAD,2024-02-03 15:38:28,14.98323127,0.000272,70.0003,113.4397,270.947,89.1378,-6.2228e-05,-8.35e-06,0.0,0 STARLINK-6058,1 56797U 23078AG  24034.65171413 -.00000835  00000-0 -62228-4 0  9997,2 56797  70.0003 113.4397 0002720 270.9470  89.1378 14.98323127 38089,6950.214,96.107,573.97,570.189,0.0
56797.0,STARLINK-6058,PAYLOAD,2024-02-04 04:27:31,14.98335408,0.0002899,69.9997,112.0928,268.0852,91.9975,-1.0578e-06,-1.06e-06,0.0,0 STARLINK-6058,1 56797U 23078AG  24035.18578424 -.00000106  00000-0 -10578-5 0  9992,2 56797  69.9997 112.0928 0002899 268.0852  91.9975 14.98335408 38429,6950.176,96.107,574.056,570.026,0.0
56797.0,STARLINK-6058,PAYLOAD,2024-02-04 14:04:19,14.98337232,0.0002876,69.9998,111.083,266.4508,93.6322,2.4822e-05,2.03e-06,0.0,0 STARLINK-6058,1 56797U 23078AG  24035.58634089  .00000203  00000-0  24822-4 0  9998,2 56797  69.9998 111.0830 0002876 266.4508  93.6322 14.98337232 38226,6950.171,96.107,574.034,570.037,0.0
56797.0,STARLINK-6058,PAYLOAD,2024-02-05 10:54:05,14.98322456,0.0002887,69.9995,108.8946,265.7696,94.3133,2.4044e-05,1.94e-06,0.0,0 STARLINK-6058,1 56797U 23078AG  24036.45423057  .00000194  00000-0  24044-4 0  9991,2 56797  69.9995 108.8946 0002887 265.7696  94.3133 14.98322456 38610,6950.216,96.107,574.088,570.075,0.0
56797.0,STARLINK-6058,PAYLOAD,2024-02-05 14:06:21,14.98324556,0.0002851,69.9996,108.558,265.0584,95.0249,4.6806e-05,4.65e-06,0.0,0 STARLINK-6058,1 56797U 23078AG  24036.58774897  .00000465  00000-0  46806-4 0  9997,2 56797  69.9996 108.5580 0002851 265.0584  95.0249 14.98324556 38374,6950.21,96.107,574.056,570.093,0.0
56797.0,STARLINK-6058,PAYLOAD,2024-02-06 04:31:33,14.9833388,0.0002741,69.9998,107.0433,265.5029,94.5817,-1.884e-05,-3.18e-06,0.0,0 STARLINK-6058,1 56797U 23078AG  24037.18858536 -.00000318  00000-0 -18840-4 0  9993,2 56797  69.9998 107.0433 0002741 265.5029  94.5817 14.98333880 38728,6950.181,96.107,573.951,570.141,0.0
56797.0,STARLINK-6058,PAYLOAD,2024-02-06 14:08:21,14.983363,0.0002683,69.9998,106.0335,263.8628,96.2225,1.6534e-05,1.04e-06,0.0,0 STARLINK-6058,1 56797U 23078AG  24037.58914165  .00000104  00000-0  16534-4 0  9997,2 56797  69.9998 106.0335 0002683 263.8628  96.2225 14.98336300 38529,6950.173,96.107,573.903,570.174,0.0
56797.0,STARLINK-6058,PAYLOAD,2024-02-07 04:33:34,14.98327948,0.0002625,69.9997,104.5189,262.5615,97.5246,4.594e-05,4.55e-06,0.0,0 STARLINK-6058,1 56797U 23078AG  24038.18998497  .00000455  00000-0  45940-4 0  9996,2 56797  69.9997 104.5189 0002625 262.5615  97.5246 14.98327948 38879,6950.199,96.107,573.889,570.24,0.0
56797.0,STARLINK-6058,PAYLOAD,2024-02-07 14:10:22,14.983306,0.0002678,69.9996,103.509,266.2807,93.8045,6.4487e-05,6.77e-06,0.0,0 STARLINK-6058,1 56797U 23078AG  24038.59054300  .00000677  00000-0  64487-4 0  9990,2 56797  69.9996 103.5090 0002678 266.2807  93.8045 14.98330600 38673,6950.191,96.107,573.917,570.195,0.0
56797.0,STARLINK-6058,PAYLOAD,2024-02-08 11:00:07,14.98332819,0.0002638,69.9997,101.3208,266.4563,93.6294,-2.0321e-05,-3.35e-06,0.0,0 STARLINK-6058,1 56797U 23078AG  24039.45842284 -.00000335  00000-0 -20321-4 0  9994,2 56797  69.9997 101.3208 0002638 266.4563  93.6294 14.98332819 39060,6950.184,96.107,573.883,570.216,0.0
56797.0,STARLINK-6058,PAYLOAD,2024-02-08 14:12:23,14.98331757,0.0002672,69.9996,100.9844,266.4408,93.6446,-3.3524e-05,-4.93e-06,0.0,0 STARLINK-6058,1 56797U 23078AG  24039.59194367 -.00000493  00000-0 -33524-4 0  9995,2 56797  69.9996 100.9844 0002672 266.4408  93.6446 14.98331757 38828,6950.187,96.107,573.91,570.195,0.0
56797.0,STARLINK-6058,PAYLOAD,2024-02-09 11:02:08,14.98330525,0.0002721,69.9994,98.7958,267.5841,92.5007,-1.8842e-05,-3.18e-06,0.0,0 STARLINK-6058,1 56797U 23078AG  24040.45982351 -.00000318  00000-0 -18842-4 0  9992,2 56797  69.9994  98.7958 0002721 267.5841  92.5007 14.98330525 39211,6950.191,96.107,573.947,570.165,0.0
56797.0,STARLINK-6058,PAYLOAD,2024-02-09 14:14:24,14.98331267,0.0002713,69.9994,98.4592,267.6284,92.4564,-9.654e-06,-2.08e-06,0.0,0 STARLINK-6058,1 56797U 23078AG  24040.59334269 -.00000208  00000-0 -96540-5 0  9996,2 56797  69.9994  98.4592 0002713 267.6284  92.4564 14.98331267 38978,6950.189,96.107,573.94,570.168,0.0
56797.0,STARLINK-6058,PAYLOAD,2024-02-10 11:04:09,14.98326839,0.0002723,69.9995,96.2706,270.0211,90.0636,-2.2107e-05,-3.57e-06,0.0,0 STARLINK-6058,1 56797U 23078AG  24041.46122647 -.00000357  00000-0 -22107-4 0  9990,2 56797  69.9995  96.2706 0002723 270.0211  90.0636 14.98326839 39368,6950.203,96.107,573.96,570.175,0.0
56797.0,STARLINK-6058,PAYLOAD,2024-02-10 12:40:18,14.98327255,0.0002715,69.9995,96.1023,269.888,90.1967,-1.6606e-05,-2.91e-06,0.0,0 STARLINK-6058,1 56797U 23078AG  24041.52798621 -.00000291  00000-0 -16606-4 0  9992,2 56797  69.9995  96.1023 0002715 269.8880  90.1967 14.98327255 39112,6950.201,96.107,573.953,570.179,0.0
56797.0,STARLINK-6058,PAYLOAD,2024-02-11 11:06:10,14.98330532,0.0002724,69.9995,93.7451,260.9077,99.1774,2.3418e-05,1.86e-06,0.0,0 STARLINK-6058,1 56797U 23078AG  24042.46262274  .00000186  00000-0  23418-4 0  9996,2 56797  69.9995  93.7451 0002724 260.9077  99.1774 14.98330532 39511,6950.191,96.107,573.949,570.163,0.0
56797.0,STARLINK-6058,PAYLOAD,2024-02-11 12:42:18,14.98331679,0.0002715,69.9995,93.5769,260.7702,99.315,3.6226e-05,3.39e-06,0.0,0 STARLINK-6058,1 56797U 23078AG  24042.52938163  .00000339  00000-0  36226-4 0  9991,2 56797  69.9995  93.5769 0002715 260.7702  99.3150 14.98331679 39269,6950.188,96.107,573.94,570.166,0.0
56797.0,STARLINK-6058,PAYLOAD,2024-02-12 11:08:15,14.98281112,0.0002623,69.9994,91.2203,247.2259,112.8623,-0.00048814,-5.905e-05,0.0,0 STARLINK-6058,1 56797U 23078AG  24043.46406772 -.00005905  00000-0 -48814-3 0  9992,2 56797  69.9994  91.2203 0002623 247.2259 112.8623 14.98281112 39667,6950.344,96.11,574.032,570.386,0.0
56797.0,STARLINK-6058,PAYLOAD,2024-02-12 12:44:24,14.9827328,0.0002512,69.9994,91.0516,257.2991,102.7887,-0.00056798,-6.853e-05,0.0,0 STARLINK-6058,1 56797U 23078AG  24043.53083721 -.00006853  00000-0 -56798-3 0  9998,2 56797  69.9994  91.0516 0002512 257.2991 102.7887 14.98273280 39413,6950.368,96.111,573.979,570.487,0.0
56797.0,STARLINK-6058,PAYLOAD,2024-02-13 03:09:34,14.98318635,0.0002532,69.9994,89.5367,267.8509,92.236,-0.0001051,-1.346e-05,0.0,0 STARLINK-6058,1 56797U 23078AG  24044.13164451 -.00001346  00000-0 -10510-3 0  9999,2 56797  69.9994  89.5367 0002532 267.8509  92.2360 14.98318635 39764,6950.228,96.108,573.853,570.333,0.0
56797.0,STARLINK-6058,PAYLOAD,2024-02-13 11:10:13,14.98328446,0.0001719,70.0014,88.6956,253.377,106.72,5.7605e-05,5.95e-06,0.0,0 STARLINK-6058,1 56797U 23078AG  24044.46543598  .00000595  00000-0  57605-4 0  9998,2 56797  70.0014  88.6956 0001719 253.3770 106.7200 14.98328446 39811,6950.198,96.107,573.257,570.868,0.0
56797.0,STARLINK-6058,PAYLOAD,2024-02-13 12:46:21,14.98331211,0.000198,70.0006,88.5267,261.9721,98.1213,5.8184e-05,6.01e-06,0.0,0 STARLINK-6058,1 56797U 23078AG  24044.53219401  .00000601  00000-0  58184-4 0  9990,2 56797  70.0006  88.5267 0001980 261.9721  98.1213 14.98331211 39561,6950.189,96.107,573.43,570.678,0.0
56797.0,STARLINK-6058,PAYLOAD,2024-02-13 20:47:01,14.98339705,0.000265,69.9989,87.6838,273.9405,86.1451,0.00010552,1.167e-05,0.0,0 STARLINK-6058,1 56797U 23078AG  24044.86598587  .00001167  00000-0  10552-3 0  9995,2 56797  69.9989  87.6838 0002650 273.9405  86.1451 14.98339705 39612,6950.163,96.106,573.87,570.186,0.0
56797.0,STARLINK-6058,PAYLOAD,2024-02-14 04:47:41,14.98342859,0.0002312,69.9991,86.841,268.795,91.2944,0.00015774,1.79e-05,0.0,0 STARLINK-6058,1 56797U 23078AG  24045.19978022  .00001790  00000-0  15774-3 0  9991,2 56797  69.9991  86.8410 0002312 268.7950  91.2944 14.98342859 39926,6950.153,96.106,573.625,570.411,0.0
56797.0,STARLINK-6058,PAYLOAD,2024-02-14 12:48:20,14.983483,0.0002574,69.9989,86.0002,274.7381,85.3484,0.00019273,2.208e-05,0.0,0 STARLINK-6058,1 56797U 23078AG  24045.53357375  .00002208  00000-0  19273-3 0  9994,2 56797  69.9989  86.0002 0002574 274.7381  85.3484 14.98348300 39714,6950.136,96.106,573.79,570.212,0.0
